[{"OBJECT_NAME":"STARLINK-4406","OBJECT_ID":"2022-105V","EPOCH":"2026-03-09T16:11:57.725088","MEAN_MOTION":15.05688645,"ECCENTRICITY":0.00032736,"INCLINATION":97.5995,"RA_OF_ASC_NODE":311.2806,"ARG_OF_PERICENTER":72.4901,"MEAN_ANOMALY":287.6683,"EPHEMERIS_TYPE":0,"CLASSIFICATION_TYPE":"U","NORAD_CAT_ID":53667,"ELEMENT_SET_NO":999,"REV_AT_EPOCH":19330,"BSTAR":0.00038130822,"MEAN_MOTION_DOT":5.451e-5,"MEAN_MOTION_DDOT":0},{"OBJECT_NAME":"SL-14 DEB","OBJECT_ID":"1989-080E","EPOCH":"2026-03-09T05:35:00.617856","MEAN_MOTION":12.9728574,"ECCENTRICITY":0.09478457,"INCLINATION":82.5007,"RA_OF_ASC_NODE":133.4407,"ARG_OF_PERICENTER":247.0746,"MEAN_ANOMALY":170.9187,"EPHEMERIS_TYPE":0,"CLASSIFICATION_TYPE":"U","NORAD_CAT_ID":20129,"ELEMENT_SET_NO":999,"REV_AT_EPOCH":68960,"BSTAR":0.0012016676,"MEAN_MOTION_DOT":3.131e-5,"MEAN_MOTION_DDOT":0}]
